NORAD_CAT_ID,OBJECT_NAME,OBJECT_TYPE,EPOCH,MEAN_MOTION,ECCENTRICITY,INCLINATION,RA_OF_ASC_NODE,ARG_OF_PERICENTER,MEAN_ANOMALY,BSTAR,MEAN_MOTION_DOT,MEAN_MOTION_DDOT,TLE_LINE0,TLE_LINE1,TLE_LINE2,SEMIMAJOR_AXIS,PERIOD,APOGEE,PERIGEE,DECAYED
56817.0,STARLINK-5982,PAYLOAD,2023-09-25 12:00:00,15.33897312,0.0003182,69.9996,85.2779,273.8463,285.5521,-0.029887,-0.00902572,0.0,0 STARLINK-5982,1 56817U 23078BC  23268.50001157 -.00902572  00000-0 -29887-1 0  9999,2 56817  69.9996  85.2779 0003182 273.8463 285.5521 15.33897312 18674,6842.335,93.879,466.377,462.023,0.0
56817.0,STARLINK-5982,PAYLOAD,2023-09-25 14:00:01,15.33759178,0.0003374,69.9996,85.0559,273.6615,25.8027,-0.03166,-0.00947852,0.0,0 STARLINK-5982,1 56817U 23078BC  23268.58335648 -.00947852  00000-0 -31660-1 0  9994,2 56817  69.9996  85.0559 0003374 273.6615  25.8027 15.33759178  6016,6842.746,93.887,466.919,462.302,0.0
56817.0,STARLINK-5982,PAYLOAD,2023-09-25 22:00:00,15.33061992,0.0003414,69.9992,84.1687,281.28,57.6798,-0.029873,-0.00880491,0.0,0 STARLINK-5982,1 56817U 23078BC  23268.91667824 -.00880491  00000-0 -29873-1 0  9993,2 56817  69.9992  84.1687 0003414 281.2800  57.6798 15.33061992  5961,6844.82,93.93,469.022,464.348,0.0
56817.0,STARLINK-5982,PAYLOAD,2023-09-26 04:00:00,15.32603871,0.0003255,69.999,83.5039,277.7558,0.3392,-0.03291,-0.00949695,0.0,0 STARLINK-5982,1 56817U 23078BC  23269.16667824 -.00949695  00000-0 -32910-1 0  9999,2 56817  69.9990  83.5039 0003255 277.7558   0.3392 15.32603871 18771,6846.184,93.958,470.277,465.82,0.0
56817.0,STARLINK-5982,PAYLOAD,2023-09-26 12:00:00,15.31947886,0.0003338,69.9994,82.6184,270.7111,45.546,-0.032225,-0.00914082,0.0,0 STARLINK-5982,1 56817U 23078BC  23269.50001157 -.00914082  00000-0 -32225-1 0  9999,2 56817  69.9994  82.6184 0003338 270.7111  45.5460 15.31947886 18825,6848.138,93.998,472.289,467.717,0.0
56817.0,STARLINK-5982,PAYLOAD,2023-09-26 14:00:01,15.31806049,0.0003375,69.9993,82.3971,273.7533,141.9852,-0.034001,-0.00956282,0.0,0 STARLINK-5982,1 56817U 23078BC  23269.58335648 -.00956282  00000-0 -34001-1 0  9994,2 56817  69.9993  82.3971 0003375 273.7533 141.9852 15.31806049  6027,6848.561,94.007,472.737,468.114,0.0
56817.0,STARLINK-5982,PAYLOAD,2023-09-26 22:00:00,15.31103473,0.0003353,69.999,81.5124,280.0484,172.8398,-0.031649,-0.00877413,0.0,0 STARLINK-5982,1 56817U 23078BC  23269.91667824 -.00877413  00000-0 -31649-1 0  9998,2 56817  69.9990  81.5124 0003353 280.0484 172.8398 15.31103473  5700,6850.656,94.05,474.818,470.224,0.0
56817.0,STARLINK-5982,PAYLOAD,2023-09-27 04:00:00,15.30641549,0.0003398,69.9989,80.8494,275.8442,114.4207,-0.034686,-0.00941977,0.0,0 STARLINK-5982,1 56817U 23078BC  23270.16667824 -.00941977  00000-0 -34686-1 0  9998,2 56817  69.9989  80.8494 0003398 275.8442 114.4207 15.30641549 18924,6852.034,94.078,476.227,471.571,0.0
56817.0,STARLINK-5982,PAYLOAD,2023-09-27 12:00:00,15.2999365,0.0003371,69.9992,79.9665,273.3721,152.706,-0.034499,-0.00920153,0.0,0 STARLINK-5982,1 56817U 23078BC  23270.50001157 -.00920153  00000-0 -34499-1 0  9992,2 56817  69.9992  79.9665 0003371 273.3721 152.7060 15.29993650 18979,6853.968,94.118,478.144,473.523,0.0
56817.0,STARLINK-5982,PAYLOAD,2023-09-27 14:00:01,15.2984213,0.0003301,69.9993,79.7458,273.513,251.3994,-0.035759,-0.00958942,0.0,0 STARLINK-5982,1 56817U 23078BC  23270.58334491 -.00958942  00000-0 -35759-1 0  9997,2 56817  69.9993  79.7458 0003301 273.5130 251.3994 15.29842130  5803,6854.421,94.127,478.548,474.023,0.0
56817.0,STARLINK-5982,PAYLOAD,2023-09-28 04:00:00,15.28681403,0.0003309,69.9989,78.2027,276.8296,218.5624,-0.036552,-0.00946675,0.0,0 STARLINK-5982,1 56817U 23078BC  23271.16667824 -.00946675  00000-0 -36552-1 0  9993,2 56817  69.9989  78.2027 0003309 276.8296 218.5624 15.28681403 19073,6857.89,94.199,482.024,477.486,0.0
56817.0,STARLINK-5982,PAYLOAD,2023-09-28 16:00:30,15.27712066,0.0003503,69.9994,76.8816,275.3497,91.8709,-0.037921,-0.00952934,0.0,0 STARLINK-5982,1 56817U 23078BC  23271.66702546 -.00952934  00000-0 -37921-1 0  9995,2 56817  69.9994  76.8816 0003503 275.3497  91.8709 15.27712066  5982,6860.791,94.259,485.059,480.252,0.0
56817.0,STARLINK-5982,PAYLOAD,2023-09-28 20:00:01,15.27352303,0.0003319,69.9993,76.4427,278.6964,282.8752,-0.035728,-0.00881818,0.0,0 STARLINK-5982,1 56817U 23078BC  23271.83334491 -.00881818  00000-0 -35728-1 0  9999,2 56817  69.9993  76.4427 0003319 278.6964 282.8752 15.27352303 19186,6861.868,94.281,486.01,481.456,0.0
56817.0,STARLINK-5982,PAYLOAD,2023-09-28 22:00:01,15.27192223,0.0003464,69.9992,76.2229,277.5607,22.1239,-0.035947,-0.00882847,0.0,0 STARLINK-5982,1 56817U 23078BC  23271.91668981 -.00882847  00000-0 -35947-1 0  9998,2 56817  69.9992  76.2229 0003464 277.5607  22.1239 15.27192223  6023,6862.347,94.291,486.59,481.835,0.0
56817.0,STARLINK-5982,PAYLOAD,2023-09-29 12:00:00,15.26082651,0.0003327,69.9996,74.6863,270.5019,354.095,-0.039008,-0.00934252,0.0,0 STARLINK-5982,1 56817U 23078BC  23272.50001157 -.00934252  00000-0 -39008-1 0  9990,2 56817  69.9996  74.6863 0003327 270.5019 354.0950 15.26082651 19282,6865.673,94.359,489.823,485.254,0.0
56817.0,STARLINK-5982,PAYLOAD,2023-09-29 14:00:01,15.25930322,0.0003495,69.9997,74.4669,273.7893,88.4692,-0.040445,-0.00962048,0.0,0 STARLINK-5982,1 56817U 23078BC  23272.58334491 -.00962048  00000-0 -40445-1 0  9999,2 56817  69.9997  74.4669 0003495 273.7893  88.4692 15.25930322  6010,6866.13,94.369,490.395,485.596,0.0
56817.0,STARLINK-5982,PAYLOAD,2023-09-30 06:00:00,15.24564653,0.0003382,69.9997,72.7144,274.6046,147.2,-0.037974,-0.0086303,0.0,0 STARLINK-5982,1 56817U 23078BC  23273.25001157 -.00863030  00000-0 -37974-1 0  9998,2 56817  69.9997  72.7144 0003382 274.6046 147.2000 15.24564653  6021,6870.23,94.453,494.419,489.771,0.0
56817.0,STARLINK-5982,PAYLOAD,2023-09-30 12:00:00,15.24127972,0.0003439,70.0001,72.0582,271.9966,81.2993,-0.041619,-0.00939476,0.0,0 STARLINK-5982,1 56817U 23078BC  23273.50001157 -.00939476  00000-0 -41619-1 0  9995,2 56817  70.0001  72.0582 0003439 271.9966  81.2993 15.24127972 19439,6871.542,94.48,495.77,491.044,0.0
56817.0,STARLINK-5982,PAYLOAD,2023-10-01 14:00:01,15.22012649,0.0003262,70.0005,69.2203,274.9243,256.5212,-0.045352,-0.00959692,0.0,0 STARLINK-5982,1 56817U 23078BC  23274.58334491 -.00959692  00000-0 -45352-1 0  9994,2 56817  70.0005  69.2203 0003262 274.9243 256.5212 15.22012649  5973,6877.908,94.612,502.016,497.529,0.0
56817.0,STARLINK-5982,PAYLOAD,2023-10-01 20:00:01,15.21479354,0.0003344,70.0005,68.5667,280.5257,180.1028,-0.042246,-0.0088548,0.0,0 STARLINK-5982,1 56817U 23078BC  23274.83334491 -.00885480  00000-0 -42246-1 0  9994,2 56817  70.0005  68.5667 0003344 280.5257 180.1028 15.21479354 19632,6879.515,94.645,503.68,499.079,0.0
56817.0,STARLINK-5982,PAYLOAD,2023-10-01 22:00:00,15.21327931,0.0003271,70.0003,68.349,278.9446,277.9707,-0.043345,-0.00903134,0.0,0 STARLINK-5982,1 56817U 23078BC  23274.91667824 -.00903134  00000-0 -43345-1 0  9990,2 56817  70.0003  68.3490 0003271 278.9446 277.9707 15.21327931  6034,6879.971,94.654,504.087,499.586,0.0
56817.0,STARLINK-5982,PAYLOAD,2023-10-02 04:00:01,15.20838497,0.0003253,70.0004,67.6961,276.6852,208.8774,-0.044799,-0.00918893,0.0,0 STARLINK-5982,1 56817U 23078BC  23275.16668981 -.00918893  00000-0 -44799-1 0  9995,2 56817  70.0004  67.6961 0003253 276.6852 208.8774 15.20838497 19681,6881.447,94.685,505.551,501.074,0.0
56817.0,STARLINK-5982,PAYLOAD,2023-10-02 22:00:00,15.19377608,0.0003353,70.0005,65.7404,277.9902,350.6068,-0.046463,-0.00913625,0.0,0 STARLINK-5982,1 56817U 23078BC  23275.91667824 -.00913625  00000-0 -46463-1 0  9991,2 56817  70.0005  65.7404 0003353 277.9902 350.6068 15.19377608  5962,6885.857,94.776,510.031,505.414,0.0
56817.0,STARLINK-5982,PAYLOAD,2023-10-03 06:00:00,15.18692515,0.0003281,70.0007,64.8726,272.3079,18.6303,-0.044771,-0.00866415,0.0,0 STARLINK-5982,1 56817U 23078BC  23276.25001157 -.00866415  00000-0 -44771-1 0  9994,2 56817  70.0007  64.8726 0003281 272.3079  18.6303 15.18692515 19857,6887.928,94.818,512.053,507.533,0.0
56817.0,STARLINK-5982,PAYLOAD,2023-10-03 14:00:01,15.18094285,0.0003388,70.0009,64.0057,274.7458,37.7235,-0.050456,-0.00952781,0.0,0 STARLINK-5982,1 56817U 23078BC  23276.58334491 -.00952781  00000-0 -50456-1 0  9999,2 56817  70.0009  64.0057 0003388 274.7458  37.7235 15.18094285  6024,6889.738,94.856,513.937,509.268,0.0
56817.0,STARLINK-5982,PAYLOAD,2023-10-03 20:00:01,15.1756774,0.000329,70.0009,63.356,279.0939,319.0342,-0.047412,-0.00886691,0.0,0 STARLINK-5982,1 56817U 23078BC  23276.83334491 -.00886691  00000-0 -47412-1 0  9991,2 56817  70.0009  63.3560 0003290 279.0939 319.0342 15.17567740 19949,6891.331,94.889,515.463,510.929,0.0
56817.0,STARLINK-5982,PAYLOAD,2023-10-03 22:00:00,15.17425538,0.000347,70.0006,63.1395,279.3628,53.8759,-0.049583,-0.00920895,0.0,0 STARLINK-5982,1 56817U 23078BC  23276.91667824 -.00920895  00000-0 -49583-1 0  9995,2 56817  70.0006  63.1395 0003470 279.3628  53.8759 15.17425538  6015,6891.762,94.898,516.018,511.235,0.0
56817.0,STARLINK-5982,PAYLOAD,2023-10-04 04:00:00,15.1691844,0.0003227,70.0008,62.4905,275.0045,343.3044,-0.049531,-0.00907588,0.0,0 STARLINK-5982,1 56817U 23078BC  23277.16667824 -.00907588  00000-0 -49531-1 0  9990,2 56817  70.0008  62.4905 0003227 275.0045 343.3044 15.16918440 19995,6893.297,94.929,517.387,512.938,0.0
56817.0,STARLINK-5982,PAYLOAD,2023-10-04 14:00:01,15.16136307,0.0003425,70.0009,61.41,276.8635,95.5567,-0.05332,-0.00951864,0.0,0 STARLINK-5982,1 56817U 23078BC  23277.58334491 -.00951864  00000-0 -53320-1 0  9994,2 56817  70.0009  61.4100 0003425 276.8635  95.5567 15.16136307  6026,6895.668,94.978,519.895,515.171,0.0
56817.0,STARLINK-5982,PAYLOAD,2023-10-04 22:00:01,15.15471552,0.000347,70.0006,60.5464,281.6084,109.2958,-0.052725,-0.00925622,0.0,0 STARLINK-5982,1 56817U 23078BC  23277.91668981 -.00925622  00000-0 -52725-1 0  9996,2 56817  70.0006  60.5464 0003470 281.6084 109.2958 15.15471552  5836,6897.684,95.02,521.943,517.156,0.0
